CCSDS_OMM_VERS = 2.0
CREATION_DATE  = 
ORIGINATOR     = 

OBJECT_NAME    = STARLINK-36791
OBJECT_ID      = 2026-044L
CENTER_NAME    = EARTH
REF_FRAME      = TEME
TIME_SYSTEM    = UTC
MEAN_ELEMENT_THEORY = SGP/SGP4

EPOCH          = 2026-03-18T06:00:02.000160
MEAN_MOTION    = 15.88691301
ECCENTRICITY   = .00014246
INCLINATION    = 97.2815
RA_OF_ASC_NODE = 37.7890
ARG_OF_PERICENTER = 99.5807
MEAN_ANOMALY   = 349.8620

EPHEMERIS_TYPE = 0
CLASSIFICATION_TYPE = U
NORAD_CAT_ID   = 68111
ELEMENT_SET_NO = 999
REV_AT_EPOCH   = 272
BSTAR          = -.73091012E-2
MEAN_MOTION_DOT = -.1765091E-1
MEAN_MOTION_DDOT = 0

CCSDS_OMM_VERS = 2.0
CREATION_DATE  = 
ORIGINATOR     = 

OBJECT_NAME    = STARLINK-36893
OBJECT_ID      = 2026-044M
CENTER_NAME    = EARTH
REF_FRAME      = TEME
TIME_SYSTEM    = UTC
MEAN_ELEMENT_THEORY = SGP/SGP4

EPOCH          = 2026-03-18T06:00:02.000160
MEAN_MOTION    = 15.88824009
ECCENTRICITY   = .00014594
INCLINATION    = 97.2812
RA_OF_ASC_NODE = 37.7892
ARG_OF_PERICENTER = 94.0117
MEAN_ANOMALY   = 358.8518

EPHEMERIS_TYPE = 0
CLASSIFICATION_TYPE = U
NORAD_CAT_ID   = 68112
ELEMENT_SET_NO = 999
REV_AT_EPOCH   = 277
BSTAR          = -.72734529E-2
MEAN_MOTION_DOT = -.1767863E-1
MEAN_MOTION_DDOT = 0

CCSDS_OMM_VERS = 2.0
CREATION_DATE  = 
ORIGINATOR     = 

OBJECT_NAME    = STARLINK-36937
OBJECT_ID      = 2026-044N
CENTER_NAME    = EARTH
REF_FRAME      = TEME
TIME_SYSTEM    = UTC
MEAN_ELEMENT_THEORY = SGP/SGP4

EPOCH          = 2026-03-18T06:00:02.000160
MEAN_MOTION    = 15.89066582
ECCENTRICITY   = .00015298
INCLINATION    = 97.2811
RA_OF_ASC_NODE = 37.7932
ARG_OF_PERICENTER = 101.2501
MEAN_ANOMALY   = 358.6014

EPHEMERIS_TYPE = 0
CLASSIFICATION_TYPE = U
NORAD_CAT_ID   = 68113
ELEMENT_SET_NO = 999
REV_AT_EPOCH   = 272
BSTAR          = -.71525249E-2
MEAN_MOTION_DOT = -.1761064E-1
MEAN_MOTION_DDOT = 0

CCSDS_OMM_VERS = 2.0
CREATION_DATE  = 
ORIGINATOR     = 

OBJECT_NAME    = STARLINK-36229
OBJECT_ID      = 2026-044P
CENTER_NAME    = EARTH
REF_FRAME      = TEME
TIME_SYSTEM    = UTC
MEAN_ELEMENT_THEORY = SGP/SGP4

EPOCH          = 2026-03-18T06:00:02.000160
MEAN_MOTION    = 15.88939336
ECCENTRICITY   = .0001447
INCLINATION    = 97.2805
RA_OF_ASC_NODE = 37.7900
ARG_OF_PERICENTER = 101.4145
MEAN_ANOMALY   = 355.0323

EPHEMERIS_TYPE = 0
CLASSIFICATION_TYPE = U
NORAD_CAT_ID   = 68114
ELEMENT_SET_NO = 999
REV_AT_EPOCH   = 277
BSTAR          = -.72218877E-2
MEAN_MOTION_DOT = -.1765874E-1
MEAN_MOTION_DDOT = 0

CCSDS_OMM_VERS = 2.0
CREATION_DATE  = 
ORIGINATOR     = 

OBJECT_NAME    = STARLINK-36392
OBJECT_ID      = 2026-044Q
CENTER_NAME    = EARTH
REF_FRAME      = TEME
TIME_SYSTEM    = UTC
MEAN_ELEMENT_THEORY = SGP/SGP4

EPOCH          = 2026-03-18T06:00:02.000160
MEAN_MOTION    = 15.89166271
ECCENTRICITY   = .00015896
INCLINATION    = 97.2805
RA_OF_ASC_NODE = 37.7937
ARG_OF_PERICENTER = 102.4947
MEAN_ANOMALY   = 1.1611

EPHEMERIS_TYPE = 0
CLASSIFICATION_TYPE = U
NORAD_CAT_ID   = 68115
ELEMENT_SET_NO = 999
REV_AT_EPOCH   = 277
BSTAR          = -.7162335E-2
MEAN_MOTION_DOT = -.1770891E-1
MEAN_MOTION_DDOT = 0

CCSDS_OMM_VERS = 2.0
CREATION_DATE  = 
ORIGINATOR     = 

OBJECT_NAME    = STARLINK-36805
OBJECT_ID      = 2026-044R
CENTER_NAME    = EARTH
REF_FRAME      = TEME
TIME_SYSTEM    = UTC
MEAN_ELEMENT_THEORY = SGP/SGP4

EPOCH          = 2026-03-18T06:00:02.000160
MEAN_MOTION    = 15.89246721
ECCENTRICITY   = .00015244
INCLINATION    = 97.2805
RA_OF_ASC_NODE = 37.7958
ARG_OF_PERICENTER = 95.4205
MEAN_ANOMALY   = 12.2973

EPHEMERIS_TYPE = 0
CLASSIFICATION_TYPE = U
NORAD_CAT_ID   = 68116
ELEMENT_SET_NO = 999
REV_AT_EPOCH   = 277
BSTAR          = -.72030335E-2
MEAN_MOTION_DOT = -.1785727E-1
MEAN_MOTION_DDOT = 0

CCSDS_OMM_VERS = 2.0
CREATION_DATE  = 
ORIGINATOR     = 

OBJECT_NAME    = STARLINK-36844
OBJECT_ID      = 2026-044S
CENTER_NAME    = EARTH
REF_FRAME      = TEME
TIME_SYSTEM    = UTC
MEAN_ELEMENT_THEORY = SGP/SGP4

EPOCH          = 2026-03-18T06:00:02.000160
MEAN_MOTION    = 15.89368041
ECCENTRICITY   = .00014773
INCLINATION    = 97.2799
RA_OF_ASC_NODE = 37.7971
ARG_OF_PERICENTER = 101.9505
MEAN_ANOMALY   = 9.2158

EPHEMERIS_TYPE = 0
CLASSIFICATION_TYPE = U
NORAD_CAT_ID   = 68117
ELEMENT_SET_NO = 999
REV_AT_EPOCH   = 272
BSTAR          = -.71277452E-2
MEAN_MOTION_DOT = -.2033681E-1
MEAN_MOTION_DDOT = .10953089E-2

CCSDS_OMM_VERS = 2.0
CREATION_DATE  = 
ORIGINATOR     = 

OBJECT_NAME    = STARLINK-36789
OBJECT_ID      = 2026-044T
CENTER_NAME    = EARTH
REF_FRAME      = TEME
TIME_SYSTEM    = UTC
MEAN_ELEMENT_THEORY = SGP/SGP4

EPOCH          = 2026-03-18T06:00:02.000160
MEAN_MOTION    = 15.89336538
ECCENTRICITY   = .00014721
INCLINATION    = 97.2800
RA_OF_ASC_NODE = 37.7996
ARG_OF_PERICENTER = 98.1816
MEAN_ANOMALY   = 18.3233

EPHEMERIS_TYPE = 0
CLASSIFICATION_TYPE = U
NORAD_CAT_ID   = 68118
ELEMENT_SET_NO = 999
REV_AT_EPOCH   = 272
BSTAR          = -.7372408E-2
MEAN_MOTION_DOT = -.1828747E-1
MEAN_MOTION_DDOT = 0

CCSDS_OMM_VERS = 2.0
CREATION_DATE  = 
ORIGINATOR     = 

OBJECT_NAME    = STARLINK-36850
OBJECT_ID      = 2026-044U
CENTER_NAME    = EARTH
REF_FRAME      = TEME
TIME_SYSTEM    = UTC
MEAN_ELEMENT_THEORY = SGP/SGP4

EPOCH          = 2026-03-18T06:00:02.000160
MEAN_MOTION    = 15.89463012
ECCENTRICITY   = .00015417
INCLINATION    = 97.2799
RA_OF_ASC_NODE = 37.8011
ARG_OF_PERICENTER = 102.7773
MEAN_ANOMALY   = 17.2451

EPHEMERIS_TYPE = 0
CLASSIFICATION_TYPE = U
NORAD_CAT_ID   = 68119
ELEMENT_SET_NO = 999
REV_AT_EPOCH   = 272
BSTAR          = -.73690851E-2
MEAN_MOTION_DOT = -.2111611E-1
MEAN_MOTION_DDOT = .11768219E-2

CCSDS_OMM_VERS = 2.0
CREATION_DATE  = 
ORIGINATOR     = 

OBJECT_NAME    = STARLINK-36868
OBJECT_ID      = 2026-044V
CENTER_NAME    = EARTH
REF_FRAME      = TEME
TIME_SYSTEM    = UTC
MEAN_ELEMENT_THEORY = SGP/SGP4

EPOCH          = 2026-03-18T06:00:02.000160
MEAN_MOTION    = 15.89565976
ECCENTRICITY   = .00015221
INCLINATION    = 97.2793
RA_OF_ASC_NODE = 37.8030
ARG_OF_PERICENTER = 98.8260
MEAN_ANOMALY   = 25.2038

EPHEMERIS_TYPE = 0
CLASSIFICATION_TYPE = U
NORAD_CAT_ID   = 68120
ELEMENT_SET_NO = 999
REV_AT_EPOCH   = 272
BSTAR          = -.75529893E-2
MEAN_MOTION_DOT = -.2174729E-1
MEAN_MOTION_DDOT = .1245535E-2

CCSDS_OMM_VERS = 2.0
CREATION_DATE  = 
ORIGINATOR     = 

OBJECT_NAME    = STARLINK-36855
OBJECT_ID      = 2026-044W
CENTER_NAME    = EARTH
REF_FRAME      = TEME
TIME_SYSTEM    = UTC
MEAN_ELEMENT_THEORY = SGP/SGP4

EPOCH          = 2026-03-18T06:00:02.000160
MEAN_MOTION    = 15.89675677
ECCENTRICITY   = .00016151
INCLINATION    = 97.2792
RA_OF_ASC_NODE = 37.8048
ARG_OF_PERICENTER = 104.6466
MEAN_ANOMALY   = 23.1842

EPHEMERIS_TYPE = 0
CLASSIFICATION_TYPE = U
NORAD_CAT_ID   = 68121
ELEMENT_SET_NO = 999
REV_AT_EPOCH   = 272
BSTAR          = -.76548477E-2
MEAN_MOTION_DOT = -.2215748E-1
MEAN_MOTION_DDOT = .12919363E-2

CCSDS_OMM_VERS = 2.0
CREATION_DATE  = 
ORIGINATOR     = 

OBJECT_NAME    = STARLINK-36366
OBJECT_ID      = 2026-044X
CENTER_NAME    = EARTH
REF_FRAME      = TEME
TIME_SYSTEM    = UTC
MEAN_ELEMENT_THEORY = SGP/SGP4

EPOCH          = 2026-03-18T06:00:02.000160
MEAN_MOTION    = 15.89812117
ECCENTRICITY   = .00016972
INCLINATION    = 97.2790
RA_OF_ASC_NODE = 37.8060
ARG_OF_PERICENTER = 103.4821
MEAN_ANOMALY   = 27.7537

EPHEMERIS_TYPE = 0
CLASSIFICATION_TYPE = U
NORAD_CAT_ID   = 68122
ELEMENT_SET_NO = 999
REV_AT_EPOCH   = 277
BSTAR          = -.76584036E-2
MEAN_MOTION_DOT = -.2231821E-1
MEAN_MOTION_DDOT = .13116504E-2

