STARLINK-36791          
1 68111U 26044L   26077.25002315 -.01765091  00000+0 -73091-2 0  9995
2 68111  97.2815  37.7890 0001424  99.5807 349.8620 15.88691301  2729
STARLINK-36893          
1 68112U 26044M   26077.25002315 -.01767863  00000+0 -72735-2 0  9999
2 68112  97.2812  37.7892 0001459  94.0117 358.8518 15.88824009  2775
STARLINK-36937          
1 68113U 26044N   26077.25002315 -.01761064  00000+0 -71525-2 0  9993
2 68113  97.2811  37.7932 0001529 101.2501 358.6014 15.89066582  2725
STARLINK-36229          
1 68114U 26044P   26077.25002315 -.01765874  00000+0 -72219-2 0  9998
2 68114  97.2805  37.7900 0001447 101.4145 355.0323 15.88939336  2773
STARLINK-36392          
1 68115U 26044Q   26077.25002315 -.01770891  00000+0 -71623-2 0  9992
2 68115  97.2805  37.7937 0001589 102.4947   1.1611 15.89166271  2772
STARLINK-36805          
1 68116U 26044R   26077.25002315 -.01785727  00000+0 -72030-2 0  9990
2 68116  97.2805  37.7958 0001524  95.4205  12.2973 15.89246721  2776
STARLINK-36844          
1 68117U 26044S   26077.25002315 -.02033681  10953-2 -71277-2 0  9990
2 68117  97.2799  37.7971 0001477 101.9505   9.2158 15.89368041  2723
STARLINK-36789          
1 68118U 26044T   26077.25002315 -.01828747  00000+0 -73724-2 0  9993
2 68118  97.2800  37.7996 0001472  98.1816  18.3233 15.89336538  2722
STARLINK-36850          
1 68119U 26044U   26077.25002315 -.02111611  11768-2 -73691-2 0  9999
2 68119  97.2799  37.8011 0001541 102.7773  17.2451 15.89463012  2728
STARLINK-36868          
1 68120U 26044V   26077.25002315 -.02174729  12455-2 -75530-2 0  9998
2 68120  97.2793  37.8030 0001522  98.8260  25.2038 15.89565976  2722
STARLINK-36855          
1 68121U 26044W   26077.25002315 -.02215748  12919-2 -76548-2 0  9991
2 68121  97.2792  37.8048 0001615 104.6466  23.1842 15.89675677  2728
STARLINK-36366          
1 68122U 26044X   26077.25002315 -.02231821  13117-2 -76584-2 0  9993
2 68122  97.2790  37.8060 0001697 103.4821  27.7537 15.89812117  2771
